STARLINK-4070           
1 52664U 22053J   25151.23252286 -.00000013  00000+0  17261-4 0  9994
2 52664  53.2183 342.1181 0001356  85.5234 274.5913 15.08835669168400
STARLINK-4064           
1 52665U 22053K   25150.94916212 -.00000735  00000+0 -28107-4 0  9991
2 52665  53.2183 343.3931 0001328  91.2380 268.8764 15.08837944168365
STARLINK-4079           
1 52666U 22053L   25151.78079861 -.00000029  00000+0  16258-4 0  9994
2 52666  53.2187 339.2717 0001329  88.6403 271.4741 15.08837338168499
STARLINK-4076           
1 52667U 22053M   25150.94548076 -.00000111  00000+0  11137-4 0  9994
2 52667  53.2188 343.4075 0001300  95.3528 264.7612 15.08838081168361
STARLINK-4067           
1 52668U 22053N   25151.81396438 -.00000357  00000+0 -43565-5 0  9999
2 52668  53.2184 339.5091 0001344  89.6135 270.5011 15.08832991168496
STARLINK-3972           
1 52669U 22053P   25151.79556195 -.00000097  00000+0  12026-4 0  9992
2 52669  53.2188 339.5922 0001338  93.7272 266.3873 15.08839142168488
STARLINK-4075           
1 52670U 22053Q   25151.48645391 -.00000289  00000+0 -57121-7 0  9999
2 52670  53.2182 341.0464 0001323  91.9512 268.1632 15.08830043168444
STARLINK-4071           
1 52671U 22053R   25151.26196040 -.00000019  00000+0  16878-4 0  9999
2 52671  53.2190 341.9894 0001444  81.9791 278.1365 15.08841270168406
STARLINK-4073           
1 52672U 22053S   25151.80292131  .00000616  00000+0  56784-4 0  9990
2 52672  53.2183 339.5599 0001418  88.5560 271.5594 15.08835720168068
STARLINK-3976           
1 52673U 22053T   25151.85074866  .00001737  00000+0  12717-3 0  9991
2 52673  53.2188 339.3452 0001376  86.7512 273.3637 15.08853757168079
STARLINK-3936           
1 52674U 22053U   25151.79923939  .00000435  00000+0  45390-4 0  9997
2 52674  53.2183 339.5757 0001397  93.4424 266.6728 15.08840508168060
STARLINK-3934           
1 52675U 22053V   25150.85441207 -.00001709  00000+0 -89318-4 0  9992
2 52675  53.2181 333.8179 0001236  85.0040 275.1093 15.08827219168476
STARLINK-4006           
1 52676U 22053W   25151.78820413 -.00000433  00000+0 -91388-5 0  9990
2 52676  53.2192 339.6248 0001325  92.7850 267.3294 15.08829964168052
STARLINK-4028           
1 52677U 22053X   25151.58334491  .00434734  00000+0  92497-2 0  9997
2 52677  53.2160 325.0985 0001318  77.6175 240.9194 15.42784562  5620
