[
  {
    "OBJECT_NAME": "STARLINK-4070",
    "OBJECT_ID": "2022-053J",
    "EPOCH": "2025-05-31T05:34:49.975104",
    "MEAN_MOTION": 15.08835669,
    "ECCENTRICITY": 0.0001356,
    "INCLINATION": 53.2183,
    "RA_OF_ASC_NODE": 342.1181,
    "ARG_OF_PERICENTER": 85.5234,
    "MEAN_ANOMALY": 274.5913,
    "EPHEMERIS_TYPE": 0,
    "CLASSIFICATION_TYPE": "U",
    "NORAD_CAT_ID": 52664,
    "ELEMENT_SET_NO": 999,
    "REV_AT_EPOCH": 16840,
    "BSTAR": 1.7261e-05,
    "MEAN_MOTION_DOT": -1.3e-07,
    "MEAN_MOTION_DDOT": 0
  },
  {
    "OBJECT_NAME": "STARLINK-4064",
    "OBJECT_ID": "2022-053K",
    "EPOCH": "2025-05-30T22:46:47.607168",
    "MEAN_MOTION": 15.08837944,
    "ECCENTRICITY": 0.0001328,
    "INCLINATION": 53.2183,
    "RA_OF_ASC_NODE": 343.3931,
    "ARG_OF_PERICENTER": 91.238,
    "MEAN_ANOMALY": 268.8764,
    "EPHEMERIS_TYPE": 0,
    "CLASSIFICATION_TYPE": "U",
    "NORAD_CAT_ID": 52665,
    "ELEMENT_SET_NO": 999,
    "REV_AT_EPOCH": 16836,
    "BSTAR": -2.8107e-05,
    "MEAN_MOTION_DOT": -7.35e-06,
    "MEAN_MOTION_DDOT": 0
  },
  {
    "OBJECT_NAME": "STARLINK-4079",
    "OBJECT_ID": "2022-053L",
    "EPOCH": "2025-05-31T18:44:20.999904",
    "MEAN_MOTION": 15.08837338,
    "ECCENTRICITY": 0.0001329,
    "INCLINATION": 53.2187,
    "RA_OF_ASC_NODE": 339.2717,
    "ARG_OF_PERICENTER": 88.6403,
    "MEAN_ANOMALY": 271.4741,
    "EPHEMERIS_TYPE": 0,
    "CLASSIFICATION_TYPE": "U",
    "NORAD_CAT_ID": 52666,
    "ELEMENT_SET_NO": 999,
    "REV_AT_EPOCH": 16849,
    "BSTAR": 1.6258e-05,
    "MEAN_MOTION_DOT": -2.9e-07,
    "MEAN_MOTION_DDOT": 0
  },
  {
    "OBJECT_NAME": "STARLINK-4076",
    "OBJECT_ID": "2022-053M",
    "EPOCH": "2025-05-30T22:41:29.537664",
    "MEAN_MOTION": 15.08838081,
    "ECCENTRICITY": 0.00013,
    "INCLINATION": 53.2188,
    "RA_OF_ASC_NODE": 343.4075,
    "ARG_OF_PERICENTER": 95.3528,
    "MEAN_ANOMALY": 264.7612,
    "EPHEMERIS_TYPE": 0,
    "CLASSIFICATION_TYPE": "U",
    "NORAD_CAT_ID": 52667,
    "ELEMENT_SET_NO": 999,
    "REV_AT_EPOCH": 16836,
    "BSTAR": 1.1137e-05,
    "MEAN_MOTION_DOT": -1.11e-06,
    "MEAN_MOTION_DDOT": 0
  },
  {
    "OBJECT_NAME": "STARLINK-4067",
    "OBJECT_ID": "2022-053N",
    "EPOCH": "2025-05-31T19:32:06.522432",
    "MEAN_MOTION": 15.08832991,
    "ECCENTRICITY": 0.0001344,
    "INCLINATION": 53.2184,
    "RA_OF_ASC_NODE": 339.5091,
    "ARG_OF_PERICENTER": 89.6135,
    "MEAN_ANOMALY": 270.5011,
    "EPHEMERIS_TYPE": 0,
    "CLASSIFICATION_TYPE": "U",
    "NORAD_CAT_ID": 52668,
    "ELEMENT_SET_NO": 999,
    "REV_AT_EPOCH": 16849,
    "BSTAR": -4.3565e-06,
    "MEAN_MOTION_DOT": -3.57e-06,
    "MEAN_MOTION_DDOT": 0
  },
  {
    "OBJECT_NAME": "STARLINK-3972",
    "OBJECT_ID": "2022-053P",
    "EPOCH": "2025-05-31T19:05:36.552480",
    "MEAN_MOTION": 15.08839142,
    "ECCENTRICITY": 0.0001338,
    "INCLINATION": 53.2188,
    "RA_OF_ASC_NODE": 339.5922,
    "ARG_OF_PERICENTER": 93.7272,
    "MEAN_ANOMALY": 266.3873,
    "EPHEMERIS_TYPE": 0,
    "CLASSIFICATION_TYPE": "U",
    "NORAD_CAT_ID": 52669,
    "ELEMENT_SET_NO": 999,
    "REV_AT_EPOCH": 16848,
    "BSTAR": 1.2026e-05,
    "MEAN_MOTION_DOT": -9.7e-07,
    "MEAN_MOTION_DDOT": 0
  },
  {
    "OBJECT_NAME": "STARLINK-4075",
    "OBJECT_ID": "2022-053Q",
    "EPOCH": "2025-05-31T11:40:29.617824",
    "MEAN_MOTION": 15.08830043,
    "ECCENTRICITY": 0.0001323,
    "INCLINATION": 53.2182,
    "RA_OF_ASC_NODE": 341.0464,
    "ARG_OF_PERICENTER": 91.9512,
    "MEAN_ANOMALY": 268.1632,
    "EPHEMERIS_TYPE": 0,
    "CLASSIFICATION_TYPE": "U",
    "NORAD_CAT_ID": 52670,
    "ELEMENT_SET_NO": 999,
    "REV_AT_EPOCH": 16844,
    "BSTAR": -5.7121e-08,
    "MEAN_MOTION_DOT": -2.89e-06,
    "MEAN_MOTION_DDOT": 0
  },
  {
    "OBJECT_NAME": "STARLINK-4071",
    "OBJECT_ID": "2022-053R",
    "EPOCH": "2025-05-31T06:17:13.378560",
    "MEAN_MOTION": 15.0884127,
    "ECCENTRICITY": 0.0001444,
    "INCLINATION": 53.219,
    "RA_OF_ASC_NODE": 341.9894,
    "ARG_OF_PERICENTER": 81.9791,
    "MEAN_ANOMALY": 278.1365,
    "EPHEMERIS_TYPE": 0,
    "CLASSIFICATION_TYPE": "U",
    "NORAD_CAT_ID": 52671,
    "ELEMENT_SET_NO": 999,
    "REV_AT_EPOCH": 16840,
    "BSTAR": 1.6878e-05,
    "MEAN_MOTION_DOT": -1.9e-07,
    "MEAN_MOTION_DDOT": 0
  },
  {
    "OBJECT_NAME": "STARLINK-4073",
    "OBJECT_ID": "2022-053S",
    "EPOCH": "2025-05-31T19:16:12.401184",
    "MEAN_MOTION": 15.0883572,
    "ECCENTRICITY": 0.0001418,
    "INCLINATION": 53.2183,
    "RA_OF_ASC_NODE": 339.5599,
    "ARG_OF_PERICENTER": 88.556,
    "MEAN_ANOMALY": 271.5594,
    "EPHEMERIS_TYPE": 0,
    "CLASSIFICATION_TYPE": "U",
    "NORAD_CAT_ID": 52672,
    "ELEMENT_SET_NO": 999,
    "REV_AT_EPOCH": 16806,
    "BSTAR": 5.6784e-05,
    "MEAN_MOTION_DOT": 6.16e-06,
    "MEAN_MOTION_DDOT": 0
  },
  {
    "OBJECT_NAME": "STARLINK-3976",
    "OBJECT_ID": "2022-053T",
    "EPOCH": "2025-05-31T20:25:04.684224",
    "MEAN_MOTION": 15.08853757,
    "ECCENTRICITY": 0.0001376,
    "INCLINATION": 53.2188,
    "RA_OF_ASC_NODE": 339.3452,
    "ARG_OF_PERICENTER": 86.7512,
    "MEAN_ANOMALY": 273.3637,
    "EPHEMERIS_TYPE": 0,
    "CLASSIFICATION_TYPE": "U",
    "NORAD_CAT_ID": 52673,
    "ELEMENT_SET_NO": 999,
    "REV_AT_EPOCH": 16807,
    "BSTAR": 0.00012717,
    "MEAN_MOTION_DOT": 1.737e-05,
    "MEAN_MOTION_DDOT": 0
  },
  {
    "OBJECT_NAME": "STARLINK-3936",
    "OBJECT_ID": "2022-053U",
    "EPOCH": "2025-05-31T19:10:54.283296",
    "MEAN_MOTION": 15.08840508,
    "ECCENTRICITY": 0.0001397,
    "INCLINATION": 53.2183,
    "RA_OF_ASC_NODE": 339.5757,
    "ARG_OF_PERICENTER": 93.4424,
    "MEAN_ANOMALY": 266.6728,
    "EPHEMERIS_TYPE": 0,
    "CLASSIFICATION_TYPE": "U",
    "NORAD_CAT_ID": 52674,
    "ELEMENT_SET_NO": 999,
    "REV_AT_EPOCH": 16806,
    "BSTAR": 4.539e-05,
    "MEAN_MOTION_DOT": 4.35e-06,
    "MEAN_MOTION_DDOT": 0
  },
  {
    "OBJECT_NAME": "STARLINK-3934",
    "OBJECT_ID": "2022-053V",
    "EPOCH": "2025-05-30T20:30:21.202848",
    "MEAN_MOTION": 15.08827219,
    "ECCENTRICITY": 0.0001236,
    "INCLINATION": 53.2181,
    "RA_OF_ASC_NODE": 333.8179,
    "ARG_OF_PERICENTER": 85.004,
    "MEAN_ANOMALY": 275.1093,
    "EPHEMERIS_TYPE": 0,
    "CLASSIFICATION_TYPE": "U",
    "NORAD_CAT_ID": 52675,
    "ELEMENT_SET_NO": 999,
    "REV_AT_EPOCH": 16847,
    "BSTAR": -8.9318e-05,
    "MEAN_MOTION_DOT": -1.709e-05,
    "MEAN_MOTION_DDOT": 0
  },
  {
    "OBJECT_NAME": "STARLINK-4006",
    "OBJECT_ID": "2022-053W",
    "EPOCH": "2025-05-31T18:55:00.836832",
    "MEAN_MOTION": 15.08829964,
    "ECCENTRICITY": 0.0001325,
    "INCLINATION": 53.2192,
    "RA_OF_ASC_NODE": 339.6248,
    "ARG_OF_PERICENTER": 92.785,
    "MEAN_ANOMALY": 267.3294,
    "EPHEMERIS_TYPE": 0,
    "CLASSIFICATION_TYPE": "U",
    "NORAD_CAT_ID": 52676,
    "ELEMENT_SET_NO": 999,
    "REV_AT_EPOCH": 16805,
    "BSTAR": -9.1388e-06,
    "MEAN_MOTION_DOT": -4.33e-06,
    "MEAN_MOTION_DDOT": 0
  },
  {
    "OBJECT_NAME": "STARLINK-4028",
    "OBJECT_ID": "2022-053X",
    "EPOCH": "2025-05-31T14:00:01.000224",
    "MEAN_MOTION": 15.42784562,
    "ECCENTRICITY": 0.0001318,
    "INCLINATION": 53.216,
    "RA_OF_ASC_NODE": 325.0985,
    "ARG_OF_PERICENTER": 77.6175,
    "MEAN_ANOMALY": 240.9194,
    "EPHEMERIS_TYPE": 0,
    "CLASSIFICATION_TYPE": "U",
    "NORAD_CAT_ID": 52677,
    "ELEMENT_SET_NO": 999,
    "REV_AT_EPOCH": 562,
    "BSTAR": 0.0092497,
    "MEAN_MOTION_DOT": 0.00434734,
    "MEAN_MOTION_DDOT": 0
  }
]